$$SOE
2460154.500000000, A.D. 2023-Jul-29 00:00:00.0000, 3.259193335321032E+08, 3.437817917724807E+08, 5.177276171026474E+07,
2460161.500000000, A.D. 2023-Aug-05 00:00:00.0000, 3.183317659613033E+08, 3.504794280242459E+08, 5.287663188140289E+07,
2460168.500000000, A.D. 2023-Aug-12 00:00:00.0000, 3.106016434872120E+08, 3.570197506776932E+08, 5.395667059945922E+07,
2460175.500000000, A.D. 2023-Aug-19 00:00:00.0000, 3.027323149305003E+08, 3.633996937437956E+08, 5.501237580920084E+07,
2460182.500000000, A.D. 2023-Aug-26 00:00:00.0000, 2.947272008983138E+08, 3.696162624258369E+08, 5.604325625478618E+07,
2460189.500000000, A.D. 2023-Sep-02 00:00:00.0000, 2.865897921540963E+08, 3.756665348955361E+08, 5.704883175965616E+07,
2460196.500000000, A.D. 2023-Sep-09 00:00:00.0000, 2.783236479486658E+08, 3.815476639188994E+08, 5.802863349005078E+07,
2460203.500000000, A.D. 2023-Sep-16 00:00:00.0000, 2.699323944822587E+08, 3.872568782728476E+08, 5.898220418193290E+07,
2460210.500000000, A.D. 2023-Sep-23 00:00:00.0000, 2.614197239158505E+08, 3.927914842387187E+08, 5.990909831663480E+07,
2460217.500000000, A.D. 2023-Sep-30 00:00:00.0000, 2.527893935947443E+08, 3.981488683617045E+08, 6.080888237356675E+07,
2460224.500000000, A.D. 2023-Oct-07 00:00:00.0000, 2.440452231316366E+08, 4.033265009297701E+08, 6.168113533091086E+07,
2460231.500000000, A.D. 2023-Oct-14 00:00:00.0000, 2.351910903889087E+08, 4.083219368572634E+08, 6.252544904802454E+07,
2460238.500000000, A.D. 2023-Oct-21 00:00:00.0000, 2.262309295912943E+08, 4.131328155755403E+08, 6.334142836451882E+07,
2460245.500000000, A.D. 2023-Oct-28 00:00:00.0000, 2.171687301461776E+08, 4.177568621876491E+08, 6.412869123076764E+07,
2460252.500000000, A.D. 2023-Nov-04 00:00:00.0000, 2.080085349211867E+08, 4.221918891142172E+08, 6.488686892113113E+07,
2460259.500000000, A.D. 2023-Nov-11 00:00:00.0000, 1.987544381570181E+08, 4.264357976301377E+08, 6.561560626476952E+07,
2460266.500000000, A.D. 2023-Nov-18 00:00:00.0000, 1.894105832367029E+08, 4.304865792278813E+08, 6.631456186912918E+07,
2460273.500000000, A.D. 2023-Nov-25 00:00:00.0000, 1.799811603866993E+08, 4.343423168296939E+08, 6.698340833163655E+07,
2460280.500000000, A.D. 2023-Dec-02 00:00:00.0000, 1.704704043406124E+08, 4.380011858363640E+08, 6.762183243615046E+07,
2460287.500000000, A.D. 2023-Dec-09 00:00:00.0000, 1.608825920454535E+08, 4.414614549519782E+08, 6.822953532195753E+07,
2460294.500000000, A.D. 2023-Dec-16 00:00:00.0000, 1.512220406994562E+08, 4.447214867957411E+08, 6.880623259958518E+07,
2460301.500000000, A.D. 2023-Dec-23 00:00:00.0000, 1.414931064714176E+08, 4.477797389876426E+08, 6.935165443737054E+07,
2460308.500000000, A.D. 2023-Dec-30 00:00:00.0000, 1.317001825636699E+08, 4.506347667562557E+08, 6.986554582704014E+07,
2460315.500000000, A.D. 2024-Jan-06 00:00:00.0000, 1.218476948473271E+08, 4.532852247050956E+08, 7.034766699712917E+07,
2460322.500000000, A.D. 2024-Jan-13 00:00:00.0000, 1.119400982424420E+08, 4.557298659305509E+08, 7.079779353551003E+07,
2460329.500000000, A.D. 2024-Jan-20 00:00:00.0000, 1.019818750695646E+08, 4.579675415779665E+08, 7.121571636120361E+07,
2460336.500000000, A.D. 2024-Jan-27 00:00:00.0000, 9.197753334729058E+07, 4.599972014871732E+08, 7.160124178442055E+07,
2460343.500000000, A.D. 2024-Feb-03 00:00:00.0000, 8.193160460940433E+07, 4.618178949773191E+08, 7.195419161607394E+07,
2460350.500000000, A.D. 2024-Feb-10 00:00:00.0000, 7.184864152082983E+07, 4.634287714790367E+08, 7.227440327716941E+07,
2460357.500000000, A.D. 2024-Feb-17 00:00:00.0000, 6.173321543307335E+07, 4.648290810212628E+08, 7.256172989569968E+07,
2460364.500000000, A.D. 2024-Feb-24 00:00:00.0000, 5.158991391710313E+07, 4.660181745869377E+08, 7.281604038867542E+07,
2460371.500000000, A.D. 2024-Mar-02 00:00:00.0000, 4.142333830498773E+07, 4.669955043045391E+08, 7.303721952370420E+07,
2460378.500000000, A.D. 2024-Mar-09 00:00:00.0000, 3.123810138098174E+07, 4.677606234121524E+08, 7.322516794205841E+07,
2460385.500000000, A.D. 2024-Mar-16 00:00:00.0000, 2.103882561910454E+07, 4.683131861912596E+08, 7.337980212302577E+07,
2460392.500000000, A.D. 2024-Mar-23 00:00:00.0000, 1.083014186565208E+07, 4.686529489800478E+08, 7.350105438978049E+07,
2460399.500000000, A.D. 2024-Mar-30 00:00:00.0000, 6.166862286736988E+05, 4.687797722395708E+08, 7.358887316002789E+07,
2460406.500000000, A.D. 2024-Apr-06 00:00:00.0000, -9.596904567424644E+06, 4.686936203025925E+08, 7.364322314212132E+07,
2460413.500000000, A.D. 2024-Apr-13 00:00:00.0000, -1.980599581100176E+07, 4.683945596415867E+08, 7.366408521947157E+07,
2460420.500000000, A.D. 2024-Apr-20 00:00:00.0000, -3.000595636597797E+07, 4.678827583350862E+08, 7.365145632984942E+07,
2460427.500000000, A.D. 2024-Apr-27 00:00:00.0000, -4.019216068234439E+07, 4.671584861711981E+08, 7.360534943279961E+07,
2460434.500000000, A.D. 2024-May-04 00:00:00.0000, -5.035999116450970E+07, 4.662221146845793E+08, 7.352579349956900E+07,
2460441.500000000, A.D. 2024-May-11 00:00:00.0000, -6.050484065745813E+07, 4.650741170255154E+08, 7.341283349553043E+07,
2460448.500000000, A.D. 2024-May-18 00:00:00.0000, -7.062211496698348E+07, 4.637150676836325E+08, 7.326653034962782E+07,
2460455.500000000, A.D. 2024-May-25 00:00:00.0000, -8.070723538745204E+07, 4.621456420602664E+08, 7.308696090834433E+07,
2460462.500000000, A.D. 2024-Jun-01 00:00:00.0000, -9.075564117531264E+07, 4.603666158333163E+08, 7.287421786440849E+07,
2460469.500000000, A.D. 2024-Jun-08 00:00:00.0000, -1.007627917199278E+08, 4.583788640928764E+08, 7.262840963616470E+07,
2460476.500000000, A.D. 2024-Jun-15 00:00:00.0000, -1.107241680100885E+08, 4.561833607940049E+08, 7.234966020589367E+07,
2460483.500000000, A.D. 2024-Jun-22 00:00:00.0000, -1.206352743989997E+08, 4.537811797034621E+08, 7.203810910566711E+07,
2460490.500000000, A.D. 2024-Jun-29 00:00:00.0000, -1.304916427855696E+08, 4.511734950199407E+08, 7.169391159640020E+07,
2460497.500000000, A.D. 2024-Jul-06 00:00:00.0000, -1.402888365644012E+08, 4.483615791934837E+08, 7.131723859490472E+07,
2460504.500000000, A.D. 2024-Jul-13 00:00:00.0000, -1.500224523962100E+08, 4.453468007675836E+08, 7.090827640121174E+07,
2460511.500000000, A.D. 2024-Jul-20 00:00:00.0000, -1.596881217843964E+08, 4.421306233956921E+08, 7.046722650301442E+07,
2460518.500000000, A.D. 2024-Jul-27 00:00:00.0000, -1.692815131124353E+08, 4.387146050750712E+08, 6.999430543957248E+07,
2460525.500000000, A.D. 2024-Aug-03 00:00:00.0000, -1.787983338676942E+08, 4.351003972252296E+08, 6.948974466984990E+07,
2460532.500000000, A.D. 2024-Aug-10 00:00:00.0000, -1.882343328841116E+08, 4.312897436088180E+08, 6.895379042957312E+07,
2460539.500000000, A.D. 2024-Aug-17 00:00:00.0000, -1.975853025543559E+08, 4.272844791187057E+08, 6.838670357464612E+07,
2460546.500000000, A.D. 2024-Aug-24 00:00:00.0000, -2.068470809816409E+08, 4.230865284105503E+08, 6.778875940637785E+07,
2460553.500000000, A.D. 2024-Aug-31 00:00:00.0000, -2.160155539538096E+08, 4.186979043206375E+08, 6.716024746266279E+07,
2460560.500000000, A.D. 2024-Sep-07 00:00:00.0000, -2.250866563727445E+08, 4.141207061964780E+08, 6.650147125170988E+07,
2460567.500000000, A.D. 2024-Sep-14 00:00:00.0000, -2.340563730529992E+08, 4.093571191374109E+08, 6.581274800182241E+07,
2460574.500000000, A.D. 2024-Sep-21 00:00:00.0000, -2.429207409179065E+08, 4.044094145603594E+08, 6.509440864718205E+07,
2460581.500000000, A.D. 2024-Sep-28 00:00:00.0000, -2.516758530783139E+08, 3.992799488652511E+08, 6.434679783052203E+07,
2460588.500000000, A.D. 2024-Oct-05 00:00:00.0000, -2.603178611219005E+08, 3.939711602009437E+08, 6.357027358588514E+07,
2460595.500000000, A.D. 2024-Oct-12 00:00:00.0000, -2.688429759743153E+08, 3.884855663126838E+08, 6.276520697834226E+07,
2460602.500000000, A.D. 2024-Oct-19 00:00:00.0000, -2.772474690828982E+08, 3.828257632036124E+08, 6.193198183960611E+07,
2460609.500000000, A.D. 2024-Oct-26 00:00:00.0000, -2.855276739537989E+08, 3.769944238110811E+08, 6.107099453720595E+07,
2460616.500000000, A.D. 2024-Nov-02 00:00:00.0000, -2.936799877838390E+08, 3.709942965508248E+08, 6.018265374166320E+07,
2460623.500000000, A.D. 2024-Nov-09 00:00:00.0000, -3.017008730895520E+08, 3.648282037512987E+08, 5.926738018474704E+07,
2460630.500000000, A.D. 2024-Nov-16 00:00:00.0000, -3.095868593066413E+08, 3.584990399802432E+08, 5.832560640675360E+07,
2460637.500000000, A.D. 2024-Nov-23 00:00:00.0000, -3.173345443121036E+08, 3.520097702154205E+08, 5.735777648474838E+07,
2460644.500000000, A.D. 2024-Nov-30 00:00:00.0000, -3.249405956599254E+08, 3.453634278186420E+08, 5.636434571951236E+07,
2460651.500000000, A.D. 2024-Dec-07 00:00:00.0000, -3.324017511102709E+08, 3.385631127352839E+08, 5.534578027744873E+07,
2460658.500000000, A.D. 2024-Dec-14 00:00:00.0000, -3.397148191408361E+08, 3.316119911449774E+08, 5.430255695108302E+07,
2460665.500000000, A.D. 2024-Dec-21 00:00:00.0000, -3.468766817595086E+08, 3.245132953255990E+08, 5.323516315001780E+07,
2460672.500000000, A.D. 2024-Dec-28 00:00:00.0000, -3.538842976444206E+08, 3.172703207658559E+08, 5.214409669933377E+07,
2460679.500000000, A.D. 2025-Jan-04 00:00:00.0000, -3.607347030123127E+08, 3.098864229025260E+08, 5.102986540163678E+07,
2460686.500000000, A.D. 2025-Jan-11 00:00:00.0000, -3.674250120376275E+08, 3.023650151431198E+08, 4.989298666604008E+07,
2460693.500000000, A.D. 2025-Jan-18 00:00:00.0000, -3.739524177402418E+08, 2.947095672581924E+08, 4.873398721381801E+07,
2460700.500000000, A.D. 2025-Jan-25 00:00:00.0000, -3.803141930979201E+08, 2.869236036712198E+08, 4.755340280015743E+07,
2460707.500000000, A.D. 2025-Feb-01 00:00:00.0000, -3.865076921934363E+08, 2.790107016177031E+08, 4.635177793262218E+07,
2460714.500000000, A.D. 2025-Feb-08 00:00:00.0000, -3.925303513375494E+08, 2.709744891949120E+08, 4.512966558298397E+07,
2460721.500000000, A.D. 2025-Feb-15 00:00:00.0000, -3.983796901385058E+08, 2.628186432840344E+08, 4.388762688846081E+07,
$$EOE